SITRO-AIS-64            
1 67292U 25313AW  26183.17386358  .00011882  00000+0  47460-3 0  9994
2 67292  97.3936 258.0611 0007424 306.4490  53.6063 15.25264533 28268
SCORPION (RS89S)        
1 67293U 25313AX  26183.45823069  .00004656  00000+0  20124-3 0  9990
2 67293  97.3934 257.9822 0009428 297.9244  62.1037 15.22924033 28289
SITRO-AIS-63            
1 67294U 25313AY  26183.16896183  .00011801  00000+0  47071-3 0  9996
2 67294  97.3940 258.0754 0007325 306.4991  53.5571 15.25315126 28267
ZORKIY-2M-5             
1 67295U 25313AZ  26183.48838423  .00008865  00000+0  36436-3 0  9994
2 67295  97.3935 258.2465 0008790 294.7218  65.3104 15.24374190 28304
SITRO-AIS-62            
1 67296U 25313BA  26183.54940579  .00010811  00000+0  42949-3 0  9998
2 67296  97.3942 258.4894 0007068 305.6650  54.3929 15.25473902 28327
SITRO-AIS-61            
1 67297U 25313BB  26183.47614846  .00011750  00000+0  46543-3 0  9993
2 67297  97.3942 258.4407 0006826 308.9180  51.1449 15.25551140 28315
2025-313BC              
1 67298U 25313BC  26182.15710823  .00074680  00000+0  11154-2 0  9990
2 67298  97.3808 259.9301 0010969 251.4464 108.5598 15.54721034 25431
2025-313BD              
1 67299U 25313BD  26182.92623982  .00032786  00000+0  43195-3 0  9997
2 67299  97.3805 261.0090 0010056 234.2291 125.8031 15.58314992 28445
TIANHUI 7               
1 67300U 25314A   26180.62257661  .00006056  00000+0  23778-3 0  9999
2 67300  97.4005 256.1686 0001729 233.6770 126.4309 15.26079076 27685
SHIJIAN-29A (SJ-29A)    
1 67302U 25315A   26183.78607454 -.00000058  00000+0  00000+0 0  9997
2 67302   3.4352  94.7457 0003546  26.2449 155.9510  1.00271215  1778
CSG-3                   
1 67304U 26001A   26183.45638167  .00000373  00000+0  53465-4 0  9998
2 67304  97.8889   6.8372 0001511  96.0310 264.1075 14.82164507 26724
STARLINK-36490          
1 67305U 26002A   26183.32093188  .00020797  00000+0  76324-3 0  9994
2 67305  43.0052  37.6026 0001810 285.8991  74.1661 15.27574974 28672
STARLINK-36488          
1 67306U 26002B   26182.90689630  .00026793  00000+0  97857-3 0  9997
2 67306  43.0024  40.5201 0001514 271.0543  89.0135 15.27614818 28540
STARLINK-36481          
1 67307U 26002C   26182.89277253  .00020721  00000+0  76019-3 0  9992
2 67307  43.0006  40.4120 0001186 273.2876  86.7840 15.27588108 28547
STARLINK-36449          
1 67308U 26002D   26182.88505514  .00023361  00000+0  85495-3 0  9997
2 67308  42.9997  40.3510 0001494 274.0978  85.9703 15.27611213 28601
STARLINK-36482          
1 67309U 26002E   26183.60045649  .00019830  00000+0  72827-3 0  9998
2 67309  43.0002  36.2586 0001705 274.9340  85.1317 15.27576427 28650
STARLINK-36491          
1 67310U 26002F   26182.96842910  .00032749  00000+0  11932-2 0  9997
2 67310  43.0013  40.1248 0001735 279.2918  80.7737 15.27610757 28556
STARLINK-36495          
1 67311U 26002G   26183.59018067  .00029295  00000+0  10699-2 0  9997
2 67311  43.0026  36.1813 0001644 269.5726  90.4937 15.27577528 28819
STARLINK-36485          
1 67312U 26002H   26183.64142414  .00002670  00000+0  10653-3 0  9997
2 67312  43.0025  35.7033 0001077 285.5749  74.4984 15.27574434 28661
STARLINK-36445          
1 67313U 26002J   26183.63001459  .00028224  00000+0  10314-2 0  9996
2 67313  43.0019  36.4861 0003085 288.9816  71.0701 15.27571769 28810
STARLINK-36476          
1 67314U 26002K   26183.60816807  .00020631  00000+0  75697-3 0  9995
2 67314  42.9997  36.3138 0005593 291.3937  68.6318 15.27575476 28644
STARLINK-36463          
1 67315U 26002L   26183.58760905  .00017809  00000+0  65522-3 0  9999
2 67315  43.0006  36.1583 0000605 199.2018 160.8811 15.27574800 28716
STARLINK-36461          
1 67316U 26002M   26183.58375008  .00001548  00000+0  65751-4 0  9994
2 67316  42.9991  36.1273 0001005 233.6373 126.4386 15.27574906 28819
STARLINK-36450          
1 67317U 26002N   26183.56590872  .00012489  00000+0  46265-3 0  9995
2 67317  43.0017  36.8609 0001500 252.1403 107.9285 15.27576775 28808
STARLINK-36498          
1 67318U 26002P   26183.61330911  .00022692  00000+0  83130-3 0  9997
2 67318  43.0005  36.3581 0002490 286.2715  73.7862 15.27590446 28715
STARLINK-36470          
1 67319U 26002Q   26183.61716161  .00016099  00000+0  59308-3 0  9997
2 67319  42.9996  36.3886 0006322 286.6813  73.3344 15.27576263 28714
STARLINK-36500          
1 67320U 26002R   26183.63516078  .00028895  00000+0  10549-2 0  9996
2 67320  43.0032  36.5216 0003165 288.4393  71.6114 15.27592449 28713
STARLINK-36462          
1 67321U 26002S   26183.62358683  .00024128  00000+0  88343-3 0  9995
2 67321  42.9974  36.4361 0000425 250.3280 109.7526 15.27580983 28659
STARLINK-36434          
1 67322U 26002T   26183.62743898  .00020931  00000+0  76786-3 0  9998
2 67322  42.9986  36.4655 0000614 236.5988 123.4805 15.27584627 28652
STARLINK-36497          
1 67323U 26002U   26183.60559319  .00012942  00000+0  47879-3 0  9994
2 67323  42.9984  36.2971 0000901 302.9504  57.1261 15.27595237 28716
