OBJECT_NAME,OBJECT_ID,EPOCH,MEAN_MOTION,ECCENTRICITY,INCLINATION,RA_OF_ASC_NODE,ARG_OF_PERICENTER,MEAN_ANOMALY,EPHEMERIS_TYPE,CLASSIFICATION_TYPE,NORAD_CAT_ID,ELEMENT_SET_NO,REV_AT_EPOCH,BSTAR,MEAN_MOTION_DOT,MEAN_MOTION_DDOT
SITRO-AIS-64,2025-313AW,2026-07-02T04:10:21.813312,15.25264533,.00074241,97.3936,258.0611,306.4490,53.6063,0,U,67292,999,2826,.47459967E-3,.11882E-3,0
SCORPION (RS89S),2025-313AX,2026-07-02T10:59:51.131616,15.22924033,.00094285,97.3934,257.9822,297.9244,62.1037,0,U,67293,999,2828,.20124476E-3,.4656E-4,0
SITRO-AIS-63,2025-313AY,2026-07-02T04:03:18.302112,15.25315126,.00073259,97.3940,258.0754,306.4991,53.5571,0,U,67294,999,2826,.47071405E-3,.11801E-3,0
ZORKIY-2M-5,2025-313AZ,2026-07-02T11:43:16.397472,15.24374190,.00087906,97.3935,258.2465,294.7218,65.3104,0,U,67295,999,2830,.36436244E-3,.8865E-4,0
SITRO-AIS-62,2025-313BA,2026-07-02T13:11:08.660256,15.25473902,.00070687,97.3942,258.4894,305.6650,54.3929,0,U,67296,999,2832,.42948822E-3,.10811E-3,0
SITRO-AIS-61,2025-313BB,2026-07-02T11:25:39.226944,15.25551140,.00068269,97.3942,258.4407,308.9180,51.1449,0,U,67297,999,2831,.46542718E-3,.1175E-3,0
2025-313BC,2025-313BC,2026-07-01T03:46:14.151072,15.54721034,.0010969,97.3808,259.9301,251.4464,108.5598,0,U,67298,999,2543,.11154002E-2,.7468E-3,0
2025-313BD,2025-313BD,2026-07-01T22:13:47.120448,15.58314992,.00100563,97.3805,261.0090,234.2291,125.8031,0,U,67299,999,2844,.43195312E-3,.32786E-3,0
TIANHUI 7,2025-314A,2026-06-29T14:56:30.619104,15.26079076,.00017299,97.4005,256.1686,233.6770,126.4309,0,U,67300,999,2768,.2377795E-3,.6056E-4,0
SHIJIAN-29A (SJ-29A),2025-315A,2026-07-02T18:51:56.840256,1.00271215,.0003546,3.4352,94.7457,26.2449,155.9510,0,U,67302,999,177,0,-.58E-6,0
CSG-3,2026-001A,2026-07-02T10:57:11.376288,14.82164507,.00015112,97.8889,6.8372,96.0310,264.1075,0,U,67304,999,2672,.53464876E-4,.373E-5,0
STARLINK-36490,2026-002A,2026-07-02T07:42:08.514432,15.27574974,.00018101,43.0052,37.6026,285.8991,74.1661,0,U,67305,999,2867,.76323648E-3,.20797E-3,0
STARLINK-36488,2026-002B,2026-07-01T21:45:55.840320,15.27614818,.0001514,43.0024,40.5201,271.0543,89.0135,0,U,67306,999,2854,.97856884E-3,.26793E-3,0
STARLINK-36481,2026-002C,2026-07-01T21:25:35.546592,15.27588108,.00011863,43.0006,40.4120,273.2876,86.7840,0,U,67307,999,2854,.76019432E-3,.20721E-3,0
STARLINK-36449,2026-002D,2026-07-01T21:14:28.764096,15.27611213,.00014946,42.9997,40.3510,274.0978,85.9703,0,U,67308,999,2860,.8549518E-3,.23361E-3,0
STARLINK-36482,2026-002E,2026-07-02T14:24:39.440736,15.27576427,.00017051,43.0002,36.2586,274.9340,85.1317,0,U,67309,999,2865,.72827366E-3,.1983E-3,0
STARLINK-36491,2026-002F,2026-07-01T23:14:32.274240,15.27610757,.00017351,43.0013,40.1248,279.2918,80.7737,0,U,67310,999,2855,.11932092E-2,.32749E-3,0
STARLINK-36495,2026-002G,2026-07-02T14:09:51.609888,15.27577528,.00016446,43.0026,36.1813,269.5726,90.4937,0,U,67311,999,2881,.10699487E-2,.29295E-3,0
STARLINK-36485,2026-002H,2026-07-02T15:23:39.045696,15.27574434,.00010772,43.0025,35.7033,285.5749,74.4984,0,U,67312,999,2866,.10653103E-3,.267E-4,0
STARLINK-36445,2026-002J,2026-07-02T15:07:13.260576,15.27571769,.0003085,43.0019,36.4861,288.9816,71.0701,0,U,67313,999,2881,.10314202E-2,.28224E-3,0
STARLINK-36476,2026-002K,2026-07-02T14:35:45.721248,15.27575476,.00055931,42.9997,36.3138,291.3937,68.6318,0,U,67314,999,2864,.75697305E-3,.20631E-3,0
STARLINK-36463,2026-002L,2026-07-02T14:06:09.421920,15.27574800,.00006056,43.0006,36.1583,199.2018,160.8811,0,U,67315,999,2871,.65521596E-3,.17809E-3,0
STARLINK-36461,2026-002M,2026-07-02T14:00:36.006912,15.27574906,.0001005,42.9991,36.1273,233.6373,126.4386,0,U,67316,999,2881,.65751141E-4,.1548E-4,0
STARLINK-36450,2026-002N,2026-07-02T13:34:54.513408,15.27576775,.00015001,43.0017,36.8609,252.1403,107.9285,0,U,67317,999,2880,.46265268E-3,.12489E-3,0
STARLINK-36498,2026-002P,2026-07-02T14:43:09.907104,15.27590446,.00024907,43.0005,36.3581,286.2715,73.7862,0,U,67318,999,2871,.83130195E-3,.22692E-3,0
STARLINK-36470,2026-002Q,2026-07-02T14:48:42.763104,15.27576263,.00063227,42.9996,36.3886,286.6813,73.3344,0,U,67319,999,2871,.59308352E-3,.16099E-3,0
STARLINK-36500,2026-002R,2026-07-02T15:14:37.891392,15.27592449,.00031658,43.0032,36.5216,288.4393,71.6114,0,U,67320,999,2871,.10549377E-2,.28895E-3,0
STARLINK-36462,2026-002S,2026-07-02T14:57:57.902112,15.27580983,.00004258,42.9974,36.4361,250.3280,109.7526,0,U,67321,999,2865,.88343314E-3,.24128E-3,0
STARLINK-36434,2026-002T,2026-07-02T15:03:30.727872,15.27584627,.00006148,42.9986,36.4655,236.5988,123.4805,0,U,67322,999,2865,.7678612E-3,.20931E-3,0
STARLINK-36497,2026-002U,2026-07-02T14:32:03.251616,15.27595237,.00009013,42.9984,36.2971,302.9504,57.1261,0,U,67323,999,2871,.47878514E-3,.12942E-3,0
